[{"OBJECT_NAME":"STARLINK-31693","OBJECT_ID":"2024-065W","EPOCH":"2026-03-09T20:24:38.718432","MEAN_MOTION":15.301892,"ECCENTRICITY":0.00011987,"INCLINATION":53.16,"RA_OF_ASC_NODE":280.9499,"ARG_OF_PERICENTER":88.9277,"MEAN_ANOMALY":271.1861,"EPHEMERIS_TYPE":0,"CLASSIFICATION_TYPE":"U","NORAD_CAT_ID":59441,"ELEMENT_SET_NO":999,"REV_AT_EPOCH":10895,"BSTAR":1.784999e-5,"MEAN_MOTION_DOT":1.69e-6,"MEAN_MOTION_DDOT":0},{"OBJECT_NAME":"OBJECT H","OBJECT_ID":"2024-205H","EPOCH":"2026-03-09T23:10:36.271776","MEAN_MOTION":15.29110994,"ECCENTRICITY":0.00105089,"INCLINATION":97.4168,"RA_OF_ASC_NODE":147.1265,"ARG_OF_PERICENTER":38.7838,"MEAN_ANOMALY":321.4154,"EPHEMERIS_TYPE":0,"CLASSIFICATION_TYPE":"U","NORAD_CAT_ID":61901,"ELEMENT_SET_NO":999,"REV_AT_EPOCH":7354,"BSTAR":0.00059497566,"MEAN_MOTION_DOT":0.00016783,"MEAN_MOTION_DDOT":0}]
